{"type": "FeatureCollection", "features": [ {"type": "Feature", "properties": {"norad_id": 44622, "name": "GAOFEN-10R", "group": "resource", "lat": -9.689411853121397, "lon": -67.50539674549593, "alt_km": 621.9647392827783, "timestamp": "2025-12-09T14:52:25.823685+00:00", "meta": {"OBJECT_NAME": "GAOFEN-10R", "OBJECT_ID": "2019-066A", "EPOCH": "2025-12-09T06:49:11.886240", "MEAN_MOTION": 14.82773887, "ECCENTRICITY": 0.00080338, "INCLINATION": 98.0276, "RA_OF_ASC_NODE": 290.777, "ARG_OF_PERICENTER": 51.5696, "MEAN_ANOMALY": 308.6237, "EPHEMERIS_TYPE": 0, "CLASSIFICATION_TYPE": "U", "NORAD_CAT_ID": 44622, "ELEMENT_SET_NO": 999, "REV_AT_EPOCH": 33423, "BSTAR": 0.00036087924, "MEAN_MOTION_DOT": 2.864e-05, "MEAN_MOTION_DDOT": 0}, "tle": {"line1": "1 44622U 19066A   25343.28416535  .00002864  00000+0  36088-3 0  9998", "line2": "2 44622  98.0276 290.7770 0008033  51.5696 308.6237 14.82773887334239"}}, "geometry": {"type": "Point", "coordinates": [-67.50539674549593, -9.689411853121397]}}, {"type": "Feature", "properties": {"norad_id": 44804, "name": "CARTOSAT-3", "group": "resource", "lat": 73.56721397191484, "lon": -110.38634283779011, "alt_km": 491.30935671652605, "timestamp": "2025-12-09T14:52:25.823695+00:00", "meta": {"OBJECT_NAME": "CARTOSAT-3", "OBJECT_ID": "2019-081A", "EPOCH": "2025-12-09T06:30:44.587296", "MEAN_MOTION": 15.19322694, "ECCENTRICITY": 0.00139927, "INCLINATION": 97.4584, "RA_OF_ASC_NODE": 42.8988, "ARG_OF_PERICENTER": 97.8036, "MEAN_ANOMALY": 262.4788, "EPHEMERIS_TYPE": 0, "CLASSIFICATION_TYPE": "U", "NORAD_CAT_ID": 44804, "ELEMENT_SET_NO": 999, "REV_AT_EPOCH": 33463, "BSTAR": 0.00021638242, "MEAN_MOTION_DOT": 4.512e-05, "MEAN_MOTION_DDOT": 0}, "tle": {"line1": "1 44804U 19081A   25343.27134939  .00004512  00000+0  21638-3 0  9998", "line2": "2 44804  97.4584  42.8988 0013992  97.8036 262.4788 15.19322694334633"}}, "geometry": {"type": "Point", "coordinates": [-110.38634283779011, 73.56721397191484]}}, {"type": "Feature", "properties": {"norad_id": 44819, "name": "GAOFEN-12 01", "group": "resource", "lat": -76.23798921552685, "lon": 24.07958791381281, "alt_km": 633.8520976336858, "timestamp": "2025-12-09T14:52:25.823707+00:00", "meta": {"OBJECT_NAME": "GAOFEN-12 01", "OBJECT_ID": "2019-082A", "EPOCH": "2025-12-09T07:07:08.500224", "MEAN_MOTION": 14.80650613, "ECCENTRICITY": 0.00011981, "INCLINATION": 97.8127, "RA_OF_ASC_NODE": 349.668, "ARG_OF_PERICENTER": 255.9896, "MEAN_ANOMALY": 104.1183, "EPHEMERIS_TYPE": 0, "CLASSIFICATION_TYPE": "U", "NORAD_CAT_ID": 44819, "ELEMENT_SET_NO": 999, "REV_AT_EPOCH": 32599, "BSTAR": 0.00010845894, "MEAN_MOTION_DOT": 7.82e-06, "MEAN_MOTION_DDOT": 0}, "tle": {"line1": "1 44819U 19082A   25343.29662616  .00000782  00000+0  10846-3 0  9999", "line2": "2 44819  97.8127 349.6680 0001198 255.9896 104.1183 14.80650613325991"}}, "geometry": {"type": "Point", "coordinates": [24.07958791381281, -76.23798921552685]}}, {"type": "Feature", "properties": {"norad_id": 44873, "name": "CSG-1", "group": "resource", "lat": 15.130018195090083, "lon": 162.84437169892536, "alt_km": 623.0113980531232, "timestamp": "2025-12-09T14:52:25.823717+00:00", "meta": {"OBJECT_NAME": "CSG-1", "OBJECT_ID": "2019-092A", "EPOCH": "2025-12-09T06:42:13.923648", "MEAN_MOTION": 14.82157368, "ECCENTRICITY": 0.00014607, "INCLINATION": 97.8811, "RA_OF_ASC_NODE": 164.6556, "ARG_OF_PERICENTER": 85.4737, "MEAN_ANOMALY": 274.6643, "EPHEMERIS_TYPE": 0, "CLASSIFICATION_TYPE": "U", "NORAD_CAT_ID": 44873, "ELEMENT_SET_NO": 999, "REV_AT_EPOCH": 32334, "BSTAR": 0.00015688681, "MEAN_MOTION_DOT": 1.197e-05, "MEAN_MOTION_DDOT": 0}, "tle": {"line1": "1 44873U 19092A   25343.27932782  .00001197  00000+0  15689-3 0  9993", "line2": "2 44873  97.8811 164.6556 0001460  85.4737 274.6643 14.82157368323342"}}, "geometry": {"type": "Point", "coordinates": [162.84437169892536, 15.130018195090083]}}, {"type": "Feature", "properties": {"norad_id": 46277, "name": "NEMO-HD", "group": "resource", "lat": -61.763477320125915, "lon": -150.89957792809068, "alt_km": 454.083395458686, "timestamp": "2025-12-09T14:52:25.823727+00:00", "meta": {"OBJECT_NAME": "NEMO-HD", "OBJECT_ID": "2020-061F", "EPOCH": "2025-12-09T07:35:12.856992", "MEAN_MOTION": 15.40215563, "ECCENTRICITY": 0.00020816, "INCLINATION": 97.2211, "RA_OF_ASC_NODE": 42.4576, "ARG_OF_PERICENTER": 61.1437, "MEAN_ANOMALY": 299.0018, "EPHEMERIS_TYPE": 0, "CLASSIFICATION_TYPE": "U", "NORAD_CAT_ID": 46277, "ELEMENT_SET_NO": 999, "REV_AT_EPOCH": 29271, "BSTAR": 0.00034626535, "MEAN_MOTION_DOT": 0.0001384, "MEAN_MOTION_DDOT": 0}, "tle": {"line1": "1 46277U 20061F   25343.31612103  .00013840  00000+0  34627-3 0  9999", "line2": "2 46277  97.2211  42.4576 0002081  61.1437 299.0018 15.40215563292713"}}, "geometry": {"type": "Point", "coordinates": [-150.89957792809068, -61.763477320125915]}}, {"type": "Feature", "properties": {"norad_id": 46984, "name": "SENTINEL-6A", "group": "resource", "lat": 57.157882098566226, "lon": -54.75097764940494, "alt_km": 1336.789529704948, "timestamp": "2025-12-09T14:52:25.823738+00:00", "meta": {"OBJECT_NAME": "SENTINEL-6A", "OBJECT_ID": "2020-086A", "EPOCH": "2025-12-08T21:25:14.032128", "MEAN_MOTION": 12.80930456, "ECCENTRICITY": 0.0007737, "INCLINATION": 66.0391, "RA_OF_ASC_NODE": 170.2992, "ARG_OF_PERICENTER": 269.2247, "MEAN_ANOMALY": 90.7882, "EPHEMERIS_TYPE": 0, "CLASSIFICATION_TYPE": "U", "NORAD_CAT_ID": 46984, "ELEMENT_SET_NO": 999, "REV_AT_EPOCH": 23595, "BSTAR": 4.1436e-05, "MEAN_MOTION_DOT": -5.1e-07, "MEAN_MOTION_DDOT": 0}, "tle": {"line1": "1 46984U 20086A   25342.89252352 -.00000051  00000+0  41436-4 0  9997", "line2": "2 46984  66.0391 170.2992 0007737 269.2247  90.7882 12.80930456235950"}}, "geometry": {"type": "Point", "coordinates": [-54.75097764940494, 57.157882098566226]}}, {"type": "Feature", "properties": {"norad_id": 48079, "name": "GAOFEN-12 02", "group": "resource", "lat": -66.30952387264587, "lon": -3.701057456620079, "alt_km": 636.8672727570629, "timestamp": "2025-12-09T14:52:25.823748+00:00", "meta": {"OBJECT_NAME": "GAOFEN-12 02", "OBJECT_ID": "2021-026A", "EPOCH": "2025-12-09T07:04:10.557696", "MEAN_MOTION": 14.80669122, "ECCENTRICITY": 0.0003463, "INCLINATION": 97.985, "RA_OF_ASC_NODE": 337.3177, "ARG_OF_PERICENTER": 107.7608, "MEAN_ANOMALY": 252.3983, "EPHEMERIS_TYPE": 0, "CLASSIFICATION_TYPE": "U", "NORAD_CAT_ID": 48079, "ELEMENT_SET_NO": 999, "REV_AT_EPOCH": 25366, "BSTAR": 0.00013279499, "MEAN_MOTION_DOT": 9.68e-06, "MEAN_MOTION_DDOT": 0}, "tle": {"line1": "1 48079U 21026A   25343.29456664  .00000968  00000+0  13279-3 0  9995", "line2": "2 48079  97.9850 337.3177 0003463 107.7608 252.3983 14.80669122253667"}}, "geometry": {"type": "Point", "coordinates": [-3.701057456620079, -66.30952387264587]}}, {"type": "Feature", "properties": {"norad_id": 48268, "name": "PLEIADES NEO 3", "group": "resource", "lat": -11.806505436704398, "lon": 57.76785749244637, "alt_km": 628.7166868637687, "timestamp": "2025-12-09T14:52:25.823758+00:00", "meta": {"OBJECT_NAME": "PLEIADES NEO 3", "OBJECT_ID": "2021-034A", "EPOCH": "2025-12-08T17:51:26.688096", "MEAN_MOTION": 14.81674889, "ECCENTRICITY": 0.00013213, "INCLINATION": 97.8951, "RA_OF_ASC_NODE": 55.2426, "ARG_OF_PERICENTER": 96.866, "MEAN_ANOMALY": 263.2703, "EPHEMERIS_TYPE": 0, "CLASSIFICATION_TYPE": "U", "NORAD_CAT_ID": 48268, "ELEMENT_SET_NO": 999, "REV_AT_EPOCH": 24945, "BSTAR": 2.6372942e-05, "MEAN_MOTION_DOT": 1.55e-06, "MEAN_MOTION_DDOT": 0}, "tle": {"line1": "1 48268U 21034A   25342.74405889  .00000155  00000+0  26373-4 0  9994", "line2": "2 48268  97.8951  55.2426 0001321  96.8660 263.2703 14.81674889249458"}}, "geometry": {"type": "Point", "coordinates": [57.76785749244637, -11.806505436704398]}}, {"type": "Feature", "properties": {"norad_id": 49070, "name": "PLEIADES NEO 4", "group": "resource", "lat": 11.474524278669216, "lon": -122.28457870476245, "alt_km": 625.1981176235358, "timestamp": "2025-12-09T14:52:25.823769+00:00", "meta": {"OBJECT_NAME": "PLEIADES NEO 4", "OBJECT_ID": "2021-073E", "EPOCH": "2025-12-09T07:38:01.376736", "MEAN_MOTION": 14.81677158, "ECCENTRICITY": 0.0001287, "INCLINATION": 97.8949, "RA_OF_ASC_NODE": 55.804, "ARG_OF_PERICENTER": 95.2509, "MEAN_ANOMALY": 264.8851, "EPHEMERIS_TYPE": 0, "CLASSIFICATION_TYPE": "U", "NORAD_CAT_ID": 49070, "ELEMENT_SET_NO": 999, "REV_AT_EPOCH": 23325, "BSTAR": 1.9922e-05, "MEAN_MOTION_DOT": 1.05e-06, "MEAN_MOTION_DDOT": 0}, "tle": {"line1": "1 49070U 21073E   25343.31807149  .00000105  00000+0  19922-4 0  9995", "line2": "2 49070  97.8949  55.8040 0001287  95.2509 264.8851 14.81677158233255"}}, "geometry": {"type": "Point", "coordinates": [-122.28457870476245, 11.474524278669216]}}, {"type": "Feature", "properties": {"norad_id": 49260, "name": "LANDSAT 9", "group": "resource", "lat": 76.7593628528855, "lon": -90.37556247669941, "alt_km": 694.4495438550412, "timestamp": "2025-12-09T14:52:25.823779+00:00", "meta": {"OBJECT_NAME": "LANDSAT 9", "OBJECT_ID": "2021-088A", "EPOCH": "2025-12-09T04:31:35.407200", "MEAN_MOTION": 14.57124253, "ECCENTRICITY": 0.00011098, "INCLINATION": 98.2098, "RA_OF_ASC_NODE": 51.3511, "ARG_OF_PERICENTER": 94.4976, "MEAN_ANOMALY": 265.6349, "EPHEMERIS_TYPE": 0, "CLASSIFICATION_TYPE": "U", "NORAD_CAT_ID": 49260, "ELEMENT_SET_NO": 999, "REV_AT_EPOCH": 22333, "BSTAR": 0.00016197401, "MEAN_MOTION_DOT": 6.85e-06, "MEAN_MOTION_DDOT": 0}, "tle": {"line1": "1 49260U 21088A   25343.18860425  .00000685  00000+0  16197-3 0  9996", "line2": "2 49260  98.2098  51.3511 0001109  94.4976 265.6349 14.57124253223337"}}, "geometry": {"type": "Point", "coordinates": [-90.37556247669941, 76.7593628528855]}}]}